OSCAR 7 (AO-7)          
1 07530U 74089B   21226.83677182 -.00000035  00000-0  66480-4 0  9995
2 07530 101.8586 201.2881 0011821 270.8005 204.5055 12.53649775139040
PHASE 3B (AO-10)        
1 14129U 83058B   21226.30726394 -.00000093  00000-0  00000+0 0  9990
2 14129  26.2150 145.4011 5994889 359.5573   0.0709  2.05868980259097
UOSAT 2 (UO-11)         
1 14781U 84021B   21226.81335403  .00000063  00000-0  13764-4 0  9990
2 14781  97.5949 223.7868 0006971 245.6127 114.4361 14.83311922994581
LUSAT (LO-19)           
1 20442U 90005G   21226.58061401 -.00000005  00000-0  14828-4 0  9997
2 20442  98.7453 182.5892 0011702 356.1282   3.9809 14.32993800649156
EYESAT A (AO-27)        
1 22825U 93061C   21226.93814525 -.00000018  00000-0  11140-4 0  9999
2 22825  98.9162 245.9840 0007723 218.7595 141.3033 14.30121486454349
ITAMSAT (IO-26)         
1 22826U 93061D   21226.89469203 -.00000015  00000-0  12268-4 0  9993
2 22826  98.9104 245.8426 0008453 205.5953 154.4811 14.30461433454582
RADIO ROSTO (RS-15)     
1 23439U 94085A   21226.88377208 -.00000037  00000-0  15882-3 0  9991
2 23439  64.8149 281.4606 0162641 324.9748  34.0564 11.27570034 96927
JAS-2 (FO-29)           
1 24278U 96046B   21226.86472866 -.00000026  00000-0  10861-4 0  9997
2 24278  98.5632 287.0877 0350288 358.4991   1.5070 13.53104832234149
TECHSAT 1B (GO-32)      
1 25397U 98043D   21226.80741201 -.00000014  00000-0  13515-4 0  9991
2 25397  98.7735 172.2091 0000230 319.3920  40.7241 14.23713226199795
ISS (ZARYA)             
1 25544U 98067A   21227.01871144  .00001382  00000-0  33315-4 0  9993
2 25544  51.6437  51.7874 0001245 309.3854 189.0018 15.48902838297715
PCSAT (NO-44)           
1 26931U 01043C   21226.90250016 -.00000042  00000-0  15810-4 0  9991
2 26931  67.0516 129.5937 0005673 264.0384  96.0071 14.30628244 37559
SAUDISAT 1C (SO-50)     
1 27607U 02058C   21226.91725876  .00000022  00000-0  23697-4 0  9990
2 27607  64.5554 159.5639 0047851   2.7113 357.4239 14.75775416  3137
CUTE-1 (CO-55)          
1 27844U 03031E   21226.93498368  .00000043  00000-0  38979-4 0  9992
2 27844  98.6804 234.2598 0008634 269.9695  90.0493 14.22325549940298
CUBESAT XI-IV (CO-57)   
1 27848U 03031J   21226.94559663  .00000024  00000-0  30643-4 0  9992
2 27848  98.6860 234.8312 0008568 285.1409  74.8820 14.21900688940121
MOZHAYETS 4 (RS-22)     
1 27939U 03042A   21226.90363595  .00000060  00000-0  19383-4 0  9996
2 27939  98.1493   3.6148 0014221  95.8777 264.4043 14.67010155956093
CUBESAT XI-V            
1 28895U 05043F   21226.79684411  .00000121  00000-0  32103-4 0  9994
2 28895  98.0664 358.7851 0017322  31.1227 329.0998 14.63943482842542
FALCONSAT-3             
1 30776U 07006E   21226.92852456  .00004157  00000-0  98371-4 0  9999
2 30776  35.4342  84.2606 0001334  52.4321 307.6528 15.41330990802130
CUTE-1.7+APD II (CO-65) 
1 32785U 08021C   21226.67229889  .00000234  00000-0  30679-4 0  9998
2 32785  97.6154 203.2704 0013255 163.5328 196.6323 14.88770463720839
DELFI-C3 (DO-64)        
1 32789U 08021G   21226.89639594  .00001659  00000-0  10798-3 0  9995
2 32789  97.3730 260.0083 0010074 306.2612  53.7686 15.09245798725640
SEEDS II (CO-66)        
1 32791U 08021J   21226.73105258  .00000214  00000-0  26759-4 0  9997
2 32791  97.5748 209.1797 0014424 127.7039 232.5490 14.91475695721469
YUBILEINY (RS-30)       
1 32953U 08025A   21226.73907719  .00000021  00000-0  80971-4 0  9995
2 32953  82.5056  14.6749 0019232 207.6824 152.3232 12.43103738600227
KKS-1 (KISEKI)          
1 33499U 09002H   21226.92064101  .00000079  00000-0  19424-4 0  9995
2 33499  98.2607  98.1693 0008309 207.4044 152.6727 14.75684552675037
SWISSCUBE               
1 35932U 09051B   21226.81487066  .00000107  00000-0  34963-4 0  9997
2 35932  98.5999  68.6608 0006325 269.8334  90.2138 14.56563968631453
BEESAT-1                
1 35933U 09051C   21226.84698099  .00000086  00000-0  30318-4 0  9997
2 35933  98.5958  70.4909 0004587 286.3751  73.6941 14.56618199631532
ITUPSAT1                
1 35935U 09051E   21226.81721577  .00000074  00000-0  27991-4 0  9994
2 35935  98.6061  70.5864 0006916 286.4641  73.5795 14.55748316631268
XIWANG-1 (HOPE-1)       
1 36122U 09072B   21226.74843821 -.00000036  00000-0  17173-4 0  9995
2 36122 100.1344 205.0053 0006927 333.0807  26.9947 13.16361751560565
JUGNU                   
1 37839U 11058B   21226.74759454  .00000304  00000-0  20532-4 0  9996
2 37839  19.9598 235.6602 0018991  15.8494 139.3326 14.12721010508713
SRMSAT                  
1 37841U 11058D   21226.93853887  .00000293  00000-0  15672-4 0  9991
2 37841  19.9727 307.5945 0011679 216.1370 300.9198 14.10700727507907
M-CUBED & EXP-1 PRIME   
1 37855U 11061F   21226.81532695  .00001131  00000-0  61618-4 0  9991
2 37855 101.7135 180.4985 0165573 257.0279 101.2401 15.08005536534972
STRAND-1                
1 39090U 13009E   21226.83031516  .00000022  00000-0  22496-4 0  9995
2 39090  98.4247  67.6435 0010346 102.8247 257.4095 14.35172412443414
SOMP                    
1 39134U 13015E   21226.50166409  .00001624  00000-0  77696-4 0  9996
2 39134  64.8636 343.6503 0014265 318.3105  41.6935 15.22877966460054
BEESAT-3                
1 39135U 13015F   21226.82238796  .00001183  00000-0  64652-4 0  9999
2 39135  64.8668  12.7656 0010963 340.7486  19.3226 15.19604627459472
BEESAT-2                
1 39136U 13015G   21226.71368927  .00001068  00000-0  60292-4 0  9996
2 39136  64.8751  19.7542 0020166 242.6422 117.2653 15.18941782459289
ZACUBE-1 (TSHEPISOSAT)  
1 39417U 13066B   21226.93849436  .00000266  00000-0  39487-4 0  9998
2 39417  97.5968 208.2480 0057815 330.8740  28.9252 14.81565676417734
GOMX-1                  
1 39430U 13066Q   21226.86915221  .00000206  00000-0  46569-4 0  9994
2 39430  97.8123 146.5835 0149268 291.2880  67.2446 14.59654823411566
CUBEBUG-2 (LO-74)       
1 39440U 13066AA  21226.74292643  .00000249  00000-0  41187-4 0  9996
2 39440  97.6806 193.2258 0081006  47.1611 313.6368 14.76286257415023
FUNCUBE-1 (AO-73)       
1 39444U 13066AE  21226.95411874  .00000311  00000-0  44188-4 0  9996
2 39444  97.5871 210.6374 0056604 320.7454  38.9661 14.82484260416106
UWE-3                   
1 39446U 13066AG  21226.88611387  .00000275  00000-0  42711-4 0  9990
2 39446  97.6411 200.2304 0069968  10.1131 350.1470 14.78828967415147
SPROUT                  
1 39770U 14029E   21226.89327917  .00001043  00000-0  11809-3 0  9991
2 39770  97.9209 338.1355 0009389  24.3013 335.8640 14.88567839392039
UNISAT-6                
1 40012U 14033C   21226.86751549  .00000167  00000-0  31798-4 0  9992
2 40012  97.6733  66.2080 0059531  71.8239 288.9440 14.74354018384804
DUCHIFAT-1              
1 40021U 14033M   21226.77155165  .00000511  00000-0  56984-4 0  9991
2 40021  97.9740 167.5924 0012275 339.2333  20.8385 14.91420382388977
QB50P1                  
1 40025U 14033R   21226.52902521  .00000263  00000-0  33606-4 0  9994
2 40025  97.9327 157.3720 0012242 354.8836   5.2254 14.89499050388065
NUDT-PHONESAT           
1 40900U 15049B   21226.85082238  .00002811  00000-0  10910-3 0  9997
2 40900  97.4192 240.5927 0009917 296.7594 186.0469 15.26899796327732
ZDPS 2A                 
1 40901U 15049C   21226.86904367  .00001489  00000-0  72734-4 0  9998
2 40901  97.4622 233.3877 0012429 345.8670 133.8221 15.19756776326847
ZDPS 2B                 
1 40902U 15049D   21226.84710741  .00001459  00000-0  71269-4 0  9997
2 40902  97.4667 230.7410 0012323 343.0354 137.6104 15.19796952326812
XW-2A                   
1 40903U 15049E   21226.83929281  .00002614  00000-0  55765-4 0  9995
2 40903  97.2310 281.1437 0013038 154.6714 326.7662 15.45740892331812
KAITUO 1A               
1 40904U 15049F   21226.82732817  .00000402  00000-0  24176-4 0  9997
2 40904  97.4873 227.8857 0014481   2.5862 118.8226 15.16289091326389
2015-049G               
1 40905U 15049G   21226.84311841  .00000398  00000-0  24764-4 0  9997
2 40905  97.5019 225.0027 0015465   1.6845 118.8517 15.15080564326179
XW-2C                   
1 40906U 15049H   21226.81779113  .00000775  00000-0  42701-4 0  9995
2 40906  97.4869 228.4473 0014236 352.0939 130.5461 15.16870245326416
XW-2D                   
1 40907U 15049J   21226.86441154  .00000983  00000-0  52794-4 0  9996
2 40907  97.4862 228.3085 0013447 348.6751 128.8591 15.17209391326451
LILACSAT-2              
1 40908U 15049K   21226.82843929  .00000240  00000-0  16625-4 0  9998
2 40908  97.5058 226.0314 0015845   4.2550 116.3662 15.14513880326062
XW-2F                   
1 40910U 15049M   21226.81157487  .00001325  00000-0  66019-4 0  9994
2 40910  97.4730 231.4226 0013403 334.0423 149.8417 15.19252208326589
XW-2B                   
1 40911U 15049N   21226.80562677  .00000963  00000-0  51908-4 0  9993
2 40911  97.4856 228.9237 0013414 350.0964 133.7165 15.17124254326334
KAITUO 1B               
1 40912U 15049P   21226.84214501  .00001388  00000-0  64119-4 0  9998
2 40912  97.4447 235.8335 0012606 301.5614 180.1066 15.21820102327070
TIANWANG 1A (TW-1A)     
1 40928U 15051D   21226.84904024  .00004206  00000-0  86302-4 0  9994
2 40928  97.0737 250.3627 0011319  82.1541  42.8608 15.46510097330719
LAPAN-A2                
1 40931U 15052B   21226.76292377  .00000562  00000-0 -10757-4 0  9994
2 40931   5.9986 196.5686 0012561 148.5427 211.5437 14.76682995317936
E-ST@R-II               
1 41459U 16025D   21226.79826132  .00002518  00000-0  12528-3 0  9995
2 41459  98.1490   6.5119 0158973 225.5464 133.2694 15.08323949291216
AAUSAT 4                
1 41460U 16025E   21226.90480508  .00003153  00000-0  14823-3 0  9999
2 41460  98.1500  10.8042 0145354 207.9710 151.3632 15.11533073291544
NUSAT-1 (FRESCO)        
1 41557U 16033B   21226.81692571  .00001602  00000-0  58154-4 0  9993
2 41557  97.3947 320.4406 0013670  34.2599  61.1839 15.29723625290451
